start=new Date('2022-05-28T00:00:00.000Z').valueOf();
sats=[{"MEAN_MOTION_DDOT":"0.0000000000000","GP_ID":"204676698","TIME_SYSTEM":"UTC","ECCENTRICITY":"0.00038760","INCLINATION":"53.0468","MEAN_MOTION_DOT":"-0.00004479","EPHEMERIS_TYPE":"0","COUNTRY_CODE":"US","ARG_OF_PERICENTER":"1.5088","RCS_SIZE":"LARGE","TLE_LINE2":"2 45761  53.0468 196.7287 0003876   1.5088 358.5943 15.76724363109626","MEAN_ELEMENT_THEORY":"SGP4","APOAPSIS":"342.335","BSTAR":"-0.00002334000000","LAUNCH_DATE":"2020-06-13","DECAY_DATE":null,"CENTER_NAME":"EARTH","MEAN_ANOMALY":"358.5943","SEMIMAJOR_AXIS":"6717.866","OBJECT_TYPE":"PAYLOAD","RA_OF_ASC_NODE":"196.7287","REV_AT_EPOCH":"10962","PERIOD":"91.329","OBJECT_NAME":"STARLINK-1495","FILE":"3467585","EPOCH":"2022-05-27T10:06:04.323168","CLASSIFICATION_TYPE":"U","TLE_LINE1":"1 45761U 20038AH  22147.42088337 -.00004479  00000-0 -23340-4 0  9999","MEAN_MOTION":"15.76724363","ELEMENT_SET_NO":"999","SITE":"AFETR","REF_FRAME":"TEME","NORAD_CAT_ID":"45761","OBJECT_ID":"2020-038AH","PERIAPSIS":"337.127"},{"APOAPSIS":"543.524","BSTAR":"0.00105350000000","TLE_LINE2":"2 45762  53.0536 300.2612 0001395 112.6240 247.4897 15.07920120108193","MEAN_ELEMENT_THEORY":"SGP4","DECAY_DATE":null,"LAUNCH_DATE":"2020-06-13","ARG_OF_PERICENTER":"112.6240","COUNTRY_CODE":"US","RCS_SIZE":"LARGE","INCLINATION":"53.0536","ECCENTRICITY":"0.00013950","EPHEMERIS_TYPE":"0","MEAN_MOTION_DOT":"0.00016104","GP_ID":"204713906","TIME_SYSTEM":"UTC","MEAN_MOTION_DDOT":"0.0000000000000","TLE_LINE1":"1 45762U 20038AJ  22147.73655707  .00016104  00000-0  10535-2 0  9991","ELEMENT_SET_NO":"999","MEAN_MOTION":"15.07920120","OBJECT_ID":"2020-038AJ","PERIAPSIS":"541.593","REF_FRAME":"TEME","SITE":"AFETR","NORAD_CAT_ID":"45762","PERIOD":"95.496","OBJECT_NAME":"STARLINK-1499","FILE":"3468079","REV_AT_EPOCH":"10819","CLASSIFICATION_TYPE":"U","EPOCH":"2022-05-27T17:40:38.530848","OBJECT_TYPE":"PAYLOAD","RA_OF_ASC_NODE":"300.2612","MEAN_ANOMALY":"247.4897","CENTER_NAME":"EARTH","SEMIMAJOR_AXIS":"6920.694"},{"RCS_SIZE":"LARGE","COUNTRY_CODE":"US","ARG_OF_PERICENTER":"329.2879","LAUNCH_DATE":"2020-06-13","DECAY_DATE":null,"MEAN_ELEMENT_THEORY":"SGP4","TLE_LINE2":"2 45763  53.0426 143.9853 0008680 329.2879  30.7632 15.79499769110540","APOAPSIS":"337.683","BSTAR":"0.00022171000000","MEAN_MOTION_DDOT":"0.0000000000000","GP_ID":"204677194","TIME_SYSTEM":"UTC","MEAN_MOTION_DOT":"0.00040696","EPHEMERIS_TYPE":"0","ECCENTRICITY":"0.00086800","INCLINATION":"53.0426","EPOCH":"2022-05-27T11:12:49.302720","CLASSIFICATION_TYPE":"U","REV_AT_EPOCH":"11054","FILE":"3467585","PERIOD":"91.168","OBJECT_NAME":"STARLINK-1501","NORAD_CAT_ID":"45763","SITE":"AFETR","REF_FRAME":"TEME","OBJECT_ID":"2020-038AK","PERIAPSIS":"326.035","TLE_LINE1":"1 45763U 20038AK  22147.46723730  .00040696  00000-0  22171-3 0  9997","ELEMENT_SET_NO":"999","MEAN_MOTION":"15.79499769","SEMIMAJOR_AXIS":"6709.994","CENTER_NAME":"EARTH","MEAN_ANOMALY":"30.7632","RA_OF_ASC_NODE":"143.9853","OBJECT_TYPE":"PAYLOAD"},{"CENTER_NAME":"EARTH","MEAN_ANOMALY":"295.3640","SEMIMAJOR_AXIS":"6925.356","OBJECT_TYPE":"PAYLOAD","RA_OF_ASC_NODE":"300.4039","REV_AT_EPOCH":"10819","FILE":"3468079","PERIOD":"95.592","OBJECT_NAME":"STARLINK-1502","EPOCH":"2022-05-27T17:56:43.077120","CLASSIFICATION_TYPE":"U","MEAN_MOTION":"15.06397627","TLE_LINE1":"1 45764U 20038AL  22147.74772080  .00000940  00000-0  82027-4 0  9996","ELEMENT_SET_NO":"999","NORAD_CAT_ID":"45764","SITE":"AFETR","REF_FRAME":"TEME","OBJECT_ID":"2020-038AL","PERIAPSIS":"546.143","MEAN_MOTION_DDOT":"0.0000000000000","GP_ID":"204712914","TIME_SYSTEM":"UTC","ECCENTRICITY":"0.00015570","INCLINATION":"53.0558","MEAN_MOTION_DOT":"0.00000940","EPHEMERIS_TYPE":"0","COUNTRY_CODE":"US","ARG_OF_PERICENTER":"64.7510","RCS_SIZE":"LARGE","MEAN_ELEMENT_THEORY":"SGP4","TLE_LINE2":"2 45764  53.0558 300.4039 0001557  64.7510 295.3640 15.06397627108198","APOAPSIS":"548.299","BSTAR":"0.00008202700000","LAUNCH_DATE":"2020-06-13","DECAY_DATE":null},{"RA_OF_ASC_NODE":"300.1474","OBJECT_TYPE":"PAYLOAD","SEMIMAJOR_AXIS":"6925.349","CENTER_NAME":"EARTH","MEAN_ANOMALY":"302.9708","REF_FRAME":"TEME","SITE":"AFETR","NORAD_CAT_ID":"45766","PERIAPSIS":"546.070","OBJECT_ID":"2020-038AN","TLE_LINE1":"1 45766U 20038AN  22147.80299394  .00002083  00000-0  15871-3 0  9999","ELEMENT_SET_NO":"999","MEAN_MOTION":"15.06399989","EPOCH":"2022-05-27T19:16:18.676416","CLASSIFICATION_TYPE":"U","REV_AT_EPOCH":"10818","PERIOD":"95.592","OBJECT_NAME":"STARLINK-1509","FILE":"3468079","MEAN_MOTION_DOT":"0.00002083","EPHEMERIS_TYPE":"0","INCLINATION":"53.0547","ECCENTRICITY":"0.00016510","MEAN_MOTION_DDOT":"0.0000000000000","GP_ID":"204714162","TIME_SYSTEM":"UTC","LAUNCH_DATE":"2020-06-13","DECAY_DATE":null,"TLE_LINE2":"2 45766  53.0547 300.1474 0001651  57.1440 302.9708 15.06399989108183","MEAN_ELEMENT_THEORY":"SGP4","APOAPSIS":"548.357","BSTAR":"0.00015871000000","RCS_SIZE":"LARGE","COUNTRY_CODE":"US","ARG_OF_PERICENTER":"57.1440"},{"EPOCH":"2022-05-27T20:41:14.551008","CLASSIFICATION_TYPE":"U","REV_AT_EPOCH":"10819","FILE":"3468079","PERIOD":"95.592","OBJECT_NAME":"STARLINK-1511","NORAD_CAT_ID":"45767","REF_FRAME":"TEME","SITE":"AFETR","OBJECT_ID":"2020-038AP","PERIAPSIS":"545.973","ELEMENT_SET_NO":"999","TLE_LINE1":"1 45767U 20038AP  22147.86197397  .00001252  00000-0  10296-3 0  9999","MEAN_MOTION":"15.06400111","SEMIMAJOR_AXIS":"6925.348","CENTER_NAME":"EARTH","MEAN_ANOMALY":"299.6855","RA_OF_ASC_NODE":"299.8952","OBJECT_TYPE":"PAYLOAD","RCS_SIZE":"LARGE","COUNTRY_CODE":"US","ARG_OF_PERICENTER":"60.4312","LAUNCH_DATE":"2020-06-13","DECAY_DATE":null,"MEAN_ELEMENT_THEORY":"SGP4","TLE_LINE2":"2 45767  53.0551 299.8952 0001791  60.4312 299.6855 15.06400111108190","APOAPSIS":"548.454","BSTAR":"0.00010296000000","MEAN_MOTION_DDOT":"0.0000000000000","GP_ID":"204714406","TIME_SYSTEM":"UTC","MEAN_MOTION_DOT":"0.00001252","EPHEMERIS_TYPE":"0","ECCENTRICITY":"0.00017910","INCLINATION":"53.0551"},{"MEAN_MOTION":"15.06391963","TLE_LINE1":"1 45768U 20038AQ  22147.71085070  .00000411  00000-0  46509-4 0  9991","ELEMENT_SET_NO":"999","NORAD_CAT_ID":"45768","SITE":"AFETR","REF_FRAME":"TEME","PERIAPSIS":"546.096","OBJECT_ID":"2020-038AQ","REV_AT_EPOCH":"10818","FILE":"3468079","OBJECT_NAME":"STARLINK-1521","PERIOD":"95.593","EPOCH":"2022-05-27T17:03:37.500480","CLASSIFICATION_TYPE":"U","OBJECT_TYPE":"PAYLOAD","RA_OF_ASC_NODE":"300.5647","CENTER_NAME":"EARTH","MEAN_ANOMALY":"294.8408","SEMIMAJOR_AXIS":"6925.373","MEAN_ELEMENT_THEORY":"SGP4","TLE_LINE2":"2 45768  53.0552 300.5647 0001650  65.2752 294.8408 15.06391963108182","APOAPSIS":"548.381","BSTAR":"0.00004650900000","LAUNCH_DATE":"2020-06-13","DECAY_DATE":null,"COUNTRY_CODE":"US","ARG_OF_PERICENTER":"65.2752","RCS_SIZE":"LARGE","ECCENTRICITY":"0.00016500","INCLINATION":"53.0552","MEAN_MOTION_DOT":"0.00000411","EPHEMERIS_TYPE":"0","MEAN_MOTION_DDOT":"0.0000000000000","GP_ID":"204713164","TIME_SYSTEM":"UTC"},{"ARG_OF_PERICENTER":"53.9657","COUNTRY_CODE":"US","RCS_SIZE":"LARGE","APOAPSIS":"548.296","BSTAR":"0.00005975300000","TLE_LINE2":"2 45769  53.0565 319.8729 0001579  53.9657 306.1478 15.06403622107920","MEAN_ELEMENT_THEORY":"SGP4","DECAY_DATE":null,"LAUNCH_DATE":"2020-06-13","TIME_SYSTEM":"UTC","GP_ID":"204713414","MEAN_MOTION_DDOT":"0.0000000000000","ECCENTRICITY":"0.00015790","INCLINATION":"53.0565","EPHEMERIS_TYPE":"0","MEAN_MOTION_DOT":"0.00000609","OBJECT_NAME":"STARLINK-1459","PERIOD":"95.592","FILE":"3468079","REV_AT_EPOCH":"10792","CLASSIFICATION_TYPE":"U","EPOCH":"2022-05-27T20:49:11.954208","MEAN_MOTION":"15.06403622","TLE_LINE1":"1 45769U 20038AR  22147.86749947  .00000609  00000-0  59753-4 0  9992","ELEMENT_SET_NO":"999","OBJECT_ID":"2020-038AR","PERIAPSIS":"546.109","SITE":"AFETR","REF_FRAME":"TEME","NORAD_CAT_ID":"45769","MEAN_ANOMALY":"306.1478","CENTER_NAME":"EARTH","SEMIMAJOR_AXIS":"6925.337","OBJECT_TYPE":"PAYLOAD","RA_OF_ASC_NODE":"319.8729"},{"ECCENTRICITY":"0.00016800","INCLINATION":"53.0578","EPHEMERIS_TYPE":"0","MEAN_MOTION_DOT":"-0.00000958","GP_ID":"204713663","TIME_SYSTEM":"UTC","MEAN_MOTION_DDOT":"0.0000000000000","BSTAR":"-0.00004542100000","APOAPSIS":"548.441","TLE_LINE2":"2 45770  53.0578 280.4401 0001680  70.0925 290.0245 15.06379115108458","MEAN_ELEMENT_THEORY":"SGP4","DECAY_DATE":null,"LAUNCH_DATE":"2020-06-13","ARG_OF_PERICENTER":"70.0925","COUNTRY_CODE":"US","RCS_SIZE":"LARGE","OBJECT_TYPE":"PAYLOAD","RA_OF_ASC_NODE":"280.4401","MEAN_ANOMALY":"290.0245","CENTER_NAME":"EARTH","SEMIMAJOR_AXIS":"6925.413","TLE_LINE1":"1 45770U 20038AS  22147.73756831 -.00000958  00000-0 -45421-4 0  9996","ELEMENT_SET_NO":"999","MEAN_MOTION":"15.06379115","OBJECT_ID":"2020-038AS","PERIAPSIS":"546.114","SITE":"AFETR","REF_FRAME":"TEME","NORAD_CAT_ID":"45770","OBJECT_NAME":"STARLINK-1462","PERIOD":"95.593","FILE":"3468079","REV_AT_EPOCH":"10845","CLASSIFICATION_TYPE":"U","EPOCH":"2022-05-27T17:42:05.901984"},{"DECAY_DATE":null,"LAUNCH_DATE":"2020-06-13","APOAPSIS":"548.268","BSTAR":"-0.00008496600000","TLE_LINE2":"2 45771  53.0548 279.8888 0001472  63.2553 296.8586 15.06388653108478","MEAN_ELEMENT_THEORY":"SGP4","RCS_SIZE":"LARGE","ARG_OF_PERICENTER":"63.2553","COUNTRY_CODE":"US","EPHEMERIS_TYPE":"0","MEAN_MOTION_DOT":"-0.00001546","INCLINATION":"53.0548","ECCENTRICITY":"0.00014720","GP_ID":"204713907","TIME_SYSTEM":"UTC","MEAN_MOTION_DDOT":"0.0000000000000","OBJECT_ID":"2020-038AT","PERIAPSIS":"546.229","REF_FRAME":"TEME","SITE":"AFETR","NORAD_CAT_ID":"45771","TLE_LINE1":"1 45771U 20038AT  22147.86382418 -.00001546  00000-0 -84966-4 0  9998","MEAN_MOTION":"15.06388653","ELEMENT_SET_NO":"999","CLASSIFICATION_TYPE":"U","EPOCH":"2022-05-27T20:43:54.409152","PERIOD":"95.593","OBJECT_NAME":"STARLINK-1463","FILE":"3468079","REV_AT_EPOCH":"10847","RA_OF_ASC_NODE":"279.8888","OBJECT_TYPE":"PAYLOAD","SEMIMAJOR_AXIS":"6925.383","MEAN_ANOMALY":"296.8586","CENTER_NAME":"EARTH"}];
